[
    {
        "Altitude(m)": 610405.2738181363,
        "Argument of Periapsis(deg)": 0.0,
        "Eccentricity": 0.0,
        "Inclination(deg)": 60.0,
        "Latitude(deg)": 52.11113580629842,
        "Longitude(deg)": -77.52258699528242,
        "Mean Anomaly(deg)": -245.4545,
        "RAAN(deg)": 250.00000000000003,
        "Satellite Name": "Test1 1107",
        "Satellite Number": 1107,
        "Semi-Major Axis(m)": 6980739.136638005,
        "Time(s)": 0
    },
    {
        "Altitude(m)": 610321.8466658411,
        "Argument of Periapsis(deg)": 0.00010418945913296404,
        "Eccentricity": 0.0,
        "Inclination(deg)": 60.0,
        "Latitude(deg)": 51.74585083610159,
        "Longitude(deg)": -76.75369540381244,
        "Mean Anomaly(deg)": -244.83439385453818,
        "RAAN(deg)": 249.99957995086027,
        "Satellite Name": "Test1 1107",
        "Satellite Number": 1107,
        "Semi-Major Axis(m)": 6980739.136638005,
        "Time(s)": 10
    }
]